[{"OBJECT_NAME":"STARLINK-3177","OBJECT_ID":"2022-005AL","EPOCH":"2026-03-09T20:33:10.454400","MEAN_MOTION":15.08837828,"ECCENTRICITY":0.00015457,"INCLINATION":53.216,"RA_OF_ASC_NODE":298.3695,"ARG_OF_PERICENTER":100.4572,"MEAN_ANOMALY":259.6594,"EPHEMERIS_TYPE":0,"CLASSIFICATION_TYPE":"U","NORAD_CAT_ID":51138,"ELEMENT_SET_NO":999,"REV_AT_EPOCH":22875,"BSTAR":-6.1253365e-5,"MEAN_MOTION_DOT":-1.263e-5,"MEAN_MOTION_DDOT":0},{"OBJECT_NAME":"RAISE-4","OBJECT_ID":"2025-297B","EPOCH":"2026-03-09T23:25:57.718272","MEAN_MOTION":15.08174958,"ECCENTRICITY":0.00127133,"INCLINATION":97.4953,"RA_OF_ASC_NODE":219.2703,"ARG_OF_PERICENTER":22.7159,"MEAN_ANOMALY":337.4629,"EPHEMERIS_TYPE":0,"CLASSIFICATION_TYPE":"U","NORAD_CAT_ID":67073,"ELEMENT_SET_NO":999,"REV_AT_EPOCH":1293,"BSTAR":0.00037087145,"MEAN_MOTION_DOT":5.682e-5,"MEAN_MOTION_DDOT":0}]
